{
  "type": "FeatureCollection",
  "features": [
    {
      "type": "Feature",
      "properties": {
        "norad_id": 30736,
        "name": "FENGYUN 1C DEB",
        "group": "fengyun-1c-debris",
        "lat": -3.7460924646833527,
        "lon": 17.98380327048538,
        "alt_km": 988.9056314157133,
        "timestamp": "2025-12-04T15:47:54.376705+00:00",
        "meta_object_name": "FENGYUN 1C DEB",
        "meta_object_id": "1999-025ASW",
        "meta_epoch": "2025-12-04T01:58:09.333408",
        "meta_mean_motion": 13.61597352,
        "meta_eccentricity": 0.02807621,
        "meta_inclination": 98.7853,
        "meta_ra_of_asc_node": 16.8843,
        "meta_arg_of_pericenter": 77.1136,
        "meta_mean_anomaly": 339.3933,
        "meta_ephemeris_type": 0,
        "meta_classification_type": "U",
        "meta_norad_cat_id": 30736,
        "meta_element_set_no": 999,
        "meta_rev_at_epoch": 92735,
        "meta_bstar": 0.0034506707,
        "meta_mean_motion_dot": 3.401e-05,
        "meta_mean_motion_ddot": 0,
        "tle_line1": "1 30736U 99025ASW 25338.08205247  .00003401  00000+0  34507-2 0  9991",
        "tle_line2": "2 30736  98.7853  16.8843 0280762  77.1136 339.3933 13.61597352927352"
      },
      "geometry": {
        "type": "Point",
        "coordinates": [
          17.98380327048538,
          -3.7460924646833527
        ]
      }
    },
    {
      "type": "Feature",
      "properties": {
        "norad_id": 30737,
        "name": "FENGYUN 1C DEB",
        "group": "fengyun-1c-debris",
        "lat": -8.647979837141584,
        "lon": 139.9294795141709,
        "alt_km": 821.2170149176391,
        "timestamp": "2025-12-04T15:47:54.376716+00:00",
        "meta_object_name": "FENGYUN 1C DEB",
        "meta_object_id": "1999-025ASX",
        "meta_epoch": "2025-12-02T22:32:37.687776",
        "meta_mean_motion": 14.18233515,
        "meta_eccentricity": 0.0023622,
        "meta_inclination": 98.5784,
        "meta_ra_of_asc_node": 319.5836,
        "meta_arg_of_pericenter": 159.2509,
        "meta_mean_anomaly": 257.8664,
        "meta_ephemeris_type": 0,
        "meta_classification_type": "U",
        "meta_norad_cat_id": 30737,
        "meta_element_set_no": 999,
        "meta_rev_at_epoch": 96894,
        "meta_bstar": 0.00039665201,
        "meta_mean_motion_dot": 7.76e-06,
        "meta_mean_motion_ddot": 0,
        "tle_line1": "1 30737U 99025ASX 25336.93932509  .00000776  00000+0  39665-3 0  9995",
        "tle_line2": "2 30737  98.5784 319.5836 0023622 159.2509 257.8664 14.18233515968941"
      },
      "geometry": {
        "type": "Point",
        "coordinates": [
          139.9294795141709,
          -8.647979837141584
        ]
      }
    },
    {
      "type": "Feature",
      "properties": {
        "norad_id": 30739,
        "name": "FENGYUN 1C DEB",
        "group": "fengyun-1c-debris",
        "lat": 40.6838089188353,
        "lon": -41.55589649494195,
        "alt_km": 803.3115018215849,
        "timestamp": "2025-12-04T15:47:54.376727+00:00",
        "meta_object_name": "FENGYUN 1C DEB",
        "meta_object_id": "1999-025ASZ",
        "meta_epoch": "2025-12-03T11:29:29.050944",
        "meta_mean_motion": 14.14924256,
        "meta_eccentricity": 0.01010319,
        "meta_inclination": 98.6918,
        "meta_ra_of_asc_node": 324.8516,
        "meta_arg_of_pericenter": 343.7575,
        "meta_mean_anomaly": 172.0943,
        "meta_ephemeris_type": 0,
        "meta_classification_type": "U",
        "meta_norad_cat_id": 30739,
        "meta_element_set_no": 999,
        "meta_rev_at_epoch": 96732,
        "meta_bstar": 0.0006637243,
        "meta_mean_motion_dot": 1.304e-05,
        "meta_mean_motion_ddot": 0,
        "tle_line1": "1 30739U 99025ASZ 25337.47880846  .00001304  00000+0  66372-3 0  9996",
        "tle_line2": "2 30739  98.6918 324.8516 0101031 343.7575 172.0943 14.14924256967325"
      },
      "geometry": {
        "type": "Point",
        "coordinates": [
          -41.55589649494195,
          40.6838089188353
        ]
      }
    },
    {
      "type": "Feature",
      "properties": {
        "norad_id": 30740,
        "name": "FENGYUN 1C DEB",
        "group": "fengyun-1c-debris",
        "lat": 65.02923658740008,
        "lon": 64.31061762161866,
        "alt_km": 715.0916923815867,
        "timestamp": "2025-12-04T15:47:54.376737+00:00",
        "meta_object_name": "FENGYUN 1C DEB",
        "meta_object_id": "1999-025ATA",
        "meta_epoch": "2025-12-04T00:36:12.686976",
        "meta_mean_motion": 14.51611435,
        "meta_eccentricity": 0.00327765,
        "meta_inclination": 98.6906,
        "meta_ra_of_asc_node": 82.8308,
        "meta_arg_of_pericenter": 161.5202,
        "meta_mean_anomaly": 198.719,
        "meta_ephemeris_type": 0,
        "meta_classification_type": "U",
        "meta_norad_cat_id": 30740,
        "meta_element_set_no": 999,
        "meta_rev_at_epoch": 97521,
        "meta_bstar": 0.0058557336,
        "meta_mean_motion_dot": 0.00023656,
        "meta_mean_motion_ddot": 0,
        "tle_line1": "1 30740U 99025ATA 25338.02514684  .00023656  00000+0  58557-2 0  9993",
        "tle_line2": "2 30740  98.6906  82.8308 0032776 161.5202 198.7190 14.51611435975215"
      },
      "geometry": {
        "type": "Point",
        "coordinates": [
          64.31061762161866,
          65.02923658740008
        ]
      }
    },
    {
      "type": "Feature",
      "properties": {
        "norad_id": 30741,
        "name": "FENGYUN 1C DEB",
        "group": "fengyun-1c-debris",
        "lat": -21.57668163339597,
        "lon": -8.367063758997967,
        "alt_km": 858.2142925304233,
        "timestamp": "2025-12-04T15:47:54.376748+00:00",
        "meta_object_name": "FENGYUN 1C DEB",
        "meta_object_id": "1999-025ATB",
        "meta_epoch": "2025-12-04T07:27:26.996832",
        "meta_mean_motion": 14.13226881,
        "meta_eccentricity": 0.00068538,
        "meta_inclination": 98.6798,
        "meta_ra_of_asc_node": 347.8326,
        "meta_arg_of_pericenter": 138.0976,
        "meta_mean_anomaly": 233.0487,
        "meta_ephemeris_type": 0,
        "meta_classification_type": "U",
        "meta_norad_cat_id": 30741,
        "meta_element_set_no": 999,
        "meta_rev_at_epoch": 96700,
        "meta_bstar": 0.00027503063,
        "meta_mean_motion_dot": 4.72e-06,
        "meta_mean_motion_ddot": 0,
        "tle_line1": "1 30741U 99025ATB 25338.31072913  .00000472  00000+0  27503-3 0  9999",
        "tle_line2": "2 30741  98.6798 347.8326 0006853 138.0976 233.0487 14.13226881967008"
      },
      "geometry": {
        "type": "Point",
        "coordinates": [
          -8.367063758997967,
          -21.57668163339597
        ]
      }
    },
    {
      "type": "Feature",
      "properties": {
        "norad_id": 30742,
        "name": "FENGYUN 1C DEB",
        "group": "fengyun-1c-debris",
        "lat": 59.66320643236362,
        "lon": 7.727701037501483,
        "alt_km": 903.0408000046818,
        "timestamp": "2025-12-04T15:47:54.376758+00:00",
        "meta_object_name": "FENGYUN 1C DEB",
        "meta_object_id": "1999-025ATC",
        "meta_epoch": "2025-12-04T02:08:43.412640",
        "meta_mean_motion": 14.10297409,
        "meta_eccentricity": 0.00706185,
        "meta_inclination": 98.8688,
        "meta_ra_of_asc_node": 22.6408,
        "meta_arg_of_pericenter": 251.1059,
        "meta_mean_anomaly": 163.0668,
        "meta_ephemeris_type": 0,
        "meta_classification_type": "U",
        "meta_norad_cat_id": 30742,
        "meta_element_set_no": 999,
        "meta_rev_at_epoch": 95920,
        "meta_bstar": 0.0027879225,
        "meta_mean_motion_dot": 5.019e-05,
        "meta_mean_motion_ddot": 0,
        "tle_line1": "1 30742U 99025ATC 25338.08939135  .00005019  00000+0  27879-2 0  9999",
        "tle_line2": "2 30742  98.8688  22.6408 0070618 251.1059 163.0668 14.10297409959204"
      },
      "geometry": {
        "type": "Point",
        "coordinates": [
          7.727701037501483,
          59.66320643236362
        ]
      }
    },
    {
      "type": "Feature",
      "properties": {
        "norad_id": 30744,
        "name": "FENGYUN 1C DEB",
        "group": "fengyun-1c-debris",
        "lat": 63.13877529997357,
        "lon": 106.27695512818416,
        "alt_km": 601.8571224404595,
        "timestamp": "2025-12-04T15:47:54.376768+00:00",
        "meta_object_name": "FENGYUN 1C DEB",
        "meta_object_id": "1999-025ATE",
        "meta_epoch": "2025-12-03T09:05:32.590752",
        "meta_mean_motion": 14.88131291,
        "meta_eccentricity": 0.00095943,
        "meta_inclination": 98.7318,
        "meta_ra_of_asc_node": 122.5342,
        "meta_arg_of_pericenter": 293.9542,
        "meta_mean_anomaly": 120.0885,
        "meta_ephemeris_type": 0,
        "meta_classification_type": "U",
        "meta_norad_cat_id": 30744,
        "meta_element_set_no": 999,
        "meta_rev_at_epoch": 97949,
        "meta_bstar": 0.0062303598,
        "meta_mean_motion_dot": 0.00057813,
        "meta_mean_motion_ddot": 0,
        "tle_line1": "1 30744U 99025ATE 25337.37884943  .00057813  00000+0  62304-2 0  9999",
        "tle_line2": "2 30744  98.7318 122.5342 0009594 293.9542 120.0885 14.88131291979496"
      },
      "geometry": {
        "type": "Point",
        "coordinates": [
          106.27695512818416,
          63.13877529997357
        ]
      }
    }
  ]
}